ORBCOMM FM20            
1 25416U 98046D   24150.17517334  .00000827  00000+0  33502-3 0  9990
2 25416  44.9935 197.2200 0001971 263.3582  96.7040 14.35305131349055
ORBCOMM FM16            
1 25417U 98046E   24150.53821469  .00001188  00000+0  45053-3 0  9993
2 25417  44.9931 191.1298 0003801 202.6836 157.3844 14.36313448349040
ORBCOMM FM15            
1 25418U 98046F   24150.15063952  .00001023  00000+0  39686-3 0  9990
2 25418  44.9962 197.0663 0003667 203.9905 156.0772 14.36030556348992
ORBCOMM FM14            
1 25419U 98046G   24150.10783449  .00001148  00000+0  43784-3 0  9998
2 25419  44.9947 196.3579 0002356 215.3585 167.0378 14.36213725348949
ORBCOMM FM13            
1 25420U 98046H   24150.22830188  .00000986  00000+0  38846-3 0  9998
2 25420  44.9968 200.7666 0003934 178.1855 181.9007 14.35475580348021
ORBCOMM FM21            
1 25475U 98053A   24150.45830981  .00001193  00000+0  46074-3 0  9995
2 25475  45.0089 284.0265 0001354 191.8591 168.2224 14.35401621342073
ORBCOMM FM22            
1 25476U 98053B   24150.49841794  .00001266  00000+0  48060-3 0  9992
2 25476  45.0080 281.0445 0001820 133.6097 226.4902 14.35946524342431
ORBCOMM FM23            
1 25477U 98053C   24150.48593686  .00001196  00000+0  46121-3 0  9994
2 25477  45.0094 286.3157 0001488 147.2853 212.8087 14.35446444342222
